GSAT0101 (PRN E11)      
1 37846U 11060A   22338.36197186 -.00000094  00000+0  00000+0 0  9997
2 37846  57.0495  16.7233 0001754 318.4940  41.5512  1.70474912 69242
GSAT0102 (PRN E12)      
1 37847U 11060B   22338.22459941 -.00000094  00000+0  00000+0 0  9993
2 37847  57.0500  16.7268 0003737 301.3178  21.3072  1.70475289 69116
GSAT0103 (PRN E19)      
1 38857U 12055A   22338.98729884  .00000058  00000+0  00000+0 0  9998
2 38857  55.1886 137.0090 0002220 228.4561 131.5108  1.70473617 63150
GSAT0104 (PRN E20)      
1 38858U 12055B   22337.19740557  .00000070  00000+0  00000+0 0  9995
2 38858  55.1896 137.0598 0001736 149.8069 210.1984  1.70473839 62987
GSAT0201 (PRN E18)      
1 40128U 14050A   22340.14981180 -.00000116  00000+0  00000+0 0  9995
2 40128  50.1633 325.4382 1615371 130.2715 245.0428  1.85519511 56344
GSAT0202 (PRN E14)      
1 40129U 14050B   22338.25422019 -.00000111  00000+0  00000+0 0  9991
2 40129  50.1873 324.5790 1612808 131.0159 244.1207  1.85520099 56503
GSAT0203 (PRN E26)      
1 40544U 15017A   22338.14140043 -.00000095  00000+0  00000+0 0  9999
2 40544  56.8445  16.7393 0004984 252.3931 107.6102  1.70476167 47197
GSAT0204 (PRN E22)      
1 40545U 15017B   22338.98113740 -.00000094  00000+0  00000+0 0  9995
2 40545  56.8508  16.7293 0005031 244.4275 115.5797  1.70475707 10258
GSAT0205 (PRN E24)      
1 40889U 15045A   22339.33549118 -.00000030  00000+0  00000+0 0  9999
2 40889  55.5180 257.2439 0005636  13.0671 346.9694  1.70472855 45026
GSAT0206 (PRN E30)      
1 40890U 15045B   22340.14282462 -.00000025  00000+0  00000+0 0  9992
2 40890  55.5161 257.2173 0003951   2.6362 357.3929  1.70472935 45061
GSAT0209 (PRN E09)      
1 41174U 15079A   22339.72945525  .00000052  00000+0  00000+0 0  9992
2 41174  55.2074 136.6936 0001671 335.8432  24.1295  1.70474542 43373
GSAT0208 (PRN E08)      
1 41175U 15079B   22339.94896006  .00000050  00000+0  00000+0 0  9994
2 41175  55.2029 136.6853 0001839 354.1486   5.8283  1.70474532 43373
GSAT0211 (PRN E02)      
1 41549U 16030A   22339.48188078 -.00000029  00000+0  00000+0 0  9996
2 41549  55.6627 257.1867 0004689 337.0870  22.9150  1.70472991 40684
GSAT0210 (PRN E01)      
1 41550U 16030B   22338.01437360 -.00000038  00000+0  00000+0 0  9997
2 41550  55.6632 257.2285 0003492 314.1446  45.8434  1.70474387 40650
GSAT0207 (PRN E07)      
1 41859U 16069A   22338.26378499  .00000062  00000+0  00000+0 0  9991
2 41859  54.8679 136.8732 0001542 295.9607  64.0135  1.70474480 37619
GSAT0212 (PRN E03)      
1 41860U 16069B   22339.87712464  .00000051  00000+0  00000+0 0  9993
2 41860  54.8665 136.8257 0001292  28.8438 331.1432  1.70473211 37670
GSAT0213 (PRN E04)      
1 41861U 16069C   22340.24235957  .00000048  00000+0  00000+0 0  9990
2 41861  54.8682 136.8210 0001902 243.0543 116.9039  1.70473332 37671
GSAT0214 (PRN E05)      
1 41862U 16069D   22340.38953820  .00000047  00000+0  00000+0 0  9991
2 41862  54.8670 136.8114 0001060 228.2200 131.7475  1.70473337 37676
GSAT0215 (PRN E21)      
1 43055U 17079A   22337.94659535 -.00000038  00000+0  00000+0 0  9994
2 43055  55.6400 257.0589 0002888 310.9499  49.0420  1.70473622 30976
GSAT0216 (PRN E25)      
1 43056U 17079B   22339.41189630 -.00000029  00000+0  00000+0 0  9993
2 43056  55.6390 257.0184 0004088 305.2855  54.6991  1.70473768 30980
GSAT0217 (PRN E27)      
1 43057U 17079C   22340.21876426 -.00000024  00000+0  00000+0 0  9995
2 43057  55.6366 256.9957 0004312 316.8108  43.1834  1.70473740 31013
GSAT0218 (PRN E31)      
1 43058U 17079D   22336.91924959 -.00000040  00000+0  00000+0 0  9991
2 43058  55.6389 257.0838 0004898 293.3397  66.6247  1.70473725 30983
GSAT0221 (PRN E15)      
1 43564U 18060A   22336.23130623 -.00000093  00000+0  00000+0 0  9994
2 43564  57.2259  16.6498 0005732 267.5618  92.4280  1.70475966 27122
GSAT0222 (PRN E33)      
1 43565U 18060B   22338.79752199 -.00000093  00000+0  00000+0 0  9996
2 43565  57.2285  16.5809 0004679 273.3765  86.6294  1.70476041 27219
GSAT0219 (PRN E36)      
1 43566U 18060C   22338.43147704 -.00000094  00000+0  00000+0 0  9999
2 43566  57.2287  16.5929 0004350 273.5864  86.4226  1.70475997 27181
GSAT0220 (PRN E13)      
1 43567U 18060D   22338.65173333 -.00000093  00000+0  00000+0 0  9990
2 43567  57.2300  16.5867 0005738 269.6256  90.3678  1.70475918 27167
GSAT0223                
1 49809U 21116A   22340.26043263 -.00000092  00000+0  00000+0 0  9998
2 49809  57.2214  16.4407 0003378 223.2248 134.2035  1.70476245  6201
GSAT0224                
1 49810U 21116B   22339.49642512 -.00000093  00000+0  00000+0 0  9996
2 49810  57.2219  16.4594 0002665 224.9922 136.0203  1.70476191  6218
